start=new Date('2021-10-12T00:00:00.000Z').valueOf();
sats=[{"MEAN_ANOMALY":"296.7019","RCS_SIZE":"LARGE","MEAN_ELEMENT_THEORY":"SGP4","ARG_OF_PERICENTER":"63.4152","CENTER_NAME":"EARTH","INCLINATION":"53.0539","COUNTRY_CODE":"US","NORAD_CAT_ID":"45374","DECAY_DATE":null,"PERIAPSIS":"545.998","GP_ID":"186927325","MEAN_MOTION_DOT":"0.00002095","TLE_LINE1":"1 45374U 20019Q   21284.92072358  .00002095  00000-0  15953-3 0  9990","OBJECT_ID":"2020-019Q","CLASSIFICATION_TYPE":"U","EPHEMERIS_TYPE":"0","BSTAR":"0.00015953000000","MEAN_MOTION":"15.06394543","SITE":"AFETR","LAUNCH_DATE":"2020-03-18","EPOCH":"2021-10-11T22:05:50.517312","ECCENTRICITY":"0.00017800","RA_OF_ASC_NODE":"193.1614","TLE_LINE2":"2 45374  53.0539 193.1614 0001780  63.4152 296.7019 15.06394543 87102","ELEMENT_SET_NO":"999","PERIOD":"95.592","MEAN_MOTION_DDOT":"0.0000000000000","FILE":"3157563","APOAPSIS":"548.463","TIME_SYSTEM":"UTC","OBJECT_TYPE":"PAYLOAD","REF_FRAME":"TEME","OBJECT_NAME":"STARLINK-1300","REV_AT_EPOCH":"8710","SEMIMAJOR_AXIS":"6925.365"},{"APOAPSIS":"548.541","TIME_SYSTEM":"UTC","ELEMENT_SET_NO":"999","PERIOD":"95.592","TLE_LINE2":"2 45375  53.0549 193.9875 0001902  67.5538 292.5652 15.06396682 87079","MEAN_MOTION_DDOT":"0.0000000000000","FILE":"3157563","LAUNCH_DATE":"2020-03-18","MEAN_MOTION":"15.06396682","SITE":"AFETR","RA_OF_ASC_NODE":"193.9875","ECCENTRICITY":"0.00019020","EPOCH":"2021-10-11T17:40:27.875136","CLASSIFICATION_TYPE":"U","OBJECT_ID":"2020-019R","BSTAR":"0.00017122000000","EPHEMERIS_TYPE":"0","SEMIMAJOR_AXIS":"6925.359","REV_AT_EPOCH":"8707","OBJECT_NAME":"STARLINK-1302","OBJECT_TYPE":"PAYLOAD","REF_FRAME":"TEME","RCS_SIZE":"LARGE","MEAN_ANOMALY":"292.5652","GP_ID":"186927076","TLE_LINE1":"1 45375U 20019R   21284.73643374  .00002269  00000-0  17122-3 0  9995","MEAN_MOTION_DOT":"0.00002269","NORAD_CAT_ID":"45375","COUNTRY_CODE":"US","PERIAPSIS":"545.907","DECAY_DATE":null,"ARG_OF_PERICENTER":"67.5538","CENTER_NAME":"EARTH","INCLINATION":"53.0549","MEAN_ELEMENT_THEORY":"SGP4"},{"OBJECT_NAME":"STARLINK-1304","SEMIMAJOR_AXIS":"6925.326","REV_AT_EPOCH":"8709","OBJECT_TYPE":"PAYLOAD","REF_FRAME":"TEME","TLE_LINE2":"2 45376  53.0548 193.3075 0002055  66.0737 294.0467 15.06407397 87099","PERIOD":"95.592","ELEMENT_SET_NO":"999","MEAN_MOTION_DDOT":"0.0000000000000","FILE":"3157563","APOAPSIS":"548.614","TIME_SYSTEM":"UTC","OBJECT_ID":"2020-019S","CLASSIFICATION_TYPE":"U","EPHEMERIS_TYPE":"0","BSTAR":"0.00019053000000","SITE":"AFETR","MEAN_MOTION":"15.06407397","LAUNCH_DATE":"2020-03-18","EPOCH":"2021-10-11T21:18:03.535488","ECCENTRICITY":"0.00020550","RA_OF_ASC_NODE":"193.3075","COUNTRY_CODE":"US","NORAD_CAT_ID":"45376","DECAY_DATE":null,"PERIAPSIS":"545.768","GP_ID":"186928327","MEAN_MOTION_DOT":"0.00002558","TLE_LINE1":"1 45376U 20019S   21284.88754092  .00002558  00000-0  19053-3 0  9998","MEAN_ELEMENT_THEORY":"SGP4","ARG_OF_PERICENTER":"66.0737","CENTER_NAME":"EARTH","INCLINATION":"53.0548","RCS_SIZE":"LARGE","MEAN_ANOMALY":"294.0467"},{"RCS_SIZE":"LARGE","MEAN_ANOMALY":"290.8252","NORAD_CAT_ID":"45377","COUNTRY_CODE":"US","PERIAPSIS":"545.995","DECAY_DATE":null,"GP_ID":"186928078","TLE_LINE1":"1 45377U 20019T   21284.91335236 -.00001439  00000-0 -77741-4 0  9996","MEAN_MOTION_DOT":"-0.00001439","MEAN_ELEMENT_THEORY":"SGP4","ARG_OF_PERICENTER":"69.2931","CENTER_NAME":"EARTH","INCLINATION":"53.0542","PERIOD":"95.593","ELEMENT_SET_NO":"999","TLE_LINE2":"2 45377  53.0542 193.1938 0001813  69.2931 290.8252 15.06387776 87108","FILE":"3157563","MEAN_MOTION_DDOT":"0.0000000000000","APOAPSIS":"548.507","TIME_SYSTEM":"UTC","CLASSIFICATION_TYPE":"U","OBJECT_ID":"2020-019T","BSTAR":"-0.00007774100000","EPHEMERIS_TYPE":"0","LAUNCH_DATE":"2020-03-18","SITE":"AFETR","MEAN_MOTION":"15.06387776","RA_OF_ASC_NODE":"193.1938","EPOCH":"2021-10-11T21:55:13.643904","ECCENTRICITY":"0.00018130","OBJECT_NAME":"STARLINK-1305","REV_AT_EPOCH":"8710","SEMIMAJOR_AXIS":"6925.386","OBJECT_TYPE":"PAYLOAD","REF_FRAME":"TEME"},{"RCS_SIZE":"LARGE","MEAN_ANOMALY":"291.6892","COUNTRY_CODE":"US","NORAD_CAT_ID":"45378","DECAY_DATE":null,"PERIAPSIS":"545.962","GP_ID":"186926826","MEAN_MOTION_DOT":"0.00000068","TLE_LINE1":"1 45378U 20019U   21284.90228743  .00000068  00000-0  23467-4 0  9991","MEAN_ELEMENT_THEORY":"SGP4","ARG_OF_PERICENTER":"68.4292","CENTER_NAME":"EARTH","INCLINATION":"53.0544","TLE_LINE2":"2 45378  53.0544 193.2432 0001836  68.4292 291.6892 15.06393338 87107","ELEMENT_SET_NO":"999","PERIOD":"95.593","MEAN_MOTION_DDOT":"0.0000000000000","FILE":"3157563","APOAPSIS":"548.505","TIME_SYSTEM":"UTC","OBJECT_ID":"2020-019U","CLASSIFICATION_TYPE":"U","EPHEMERIS_TYPE":"0","BSTAR":"0.00002346700000","SITE":"AFETR","MEAN_MOTION":"15.06393338","LAUNCH_DATE":"2020-03-18","ECCENTRICITY":"0.00018360","EPOCH":"2021-10-11T21:39:17.633952","RA_OF_ASC_NODE":"193.2432","OBJECT_NAME":"STARLINK-1310","SEMIMAJOR_AXIS":"6925.369","REV_AT_EPOCH":"8710","OBJECT_TYPE":"PAYLOAD","REF_FRAME":"TEME"},{"REF_FRAME":"TEME","OBJECT_TYPE":"PAYLOAD","OBJECT_NAME":"STARLINK-1319","REV_AT_EPOCH":"8710","SEMIMAJOR_AXIS":"6925.358","BSTAR":"0.00008993100000","EPHEMERIS_TYPE":"0","CLASSIFICATION_TYPE":"U","OBJECT_ID":"2020-019V","RA_OF_ASC_NODE":"193.2288","ECCENTRICITY":"0.00017050","EPOCH":"2021-10-11T21:44:36.224448","LAUNCH_DATE":"2020-03-18","SITE":"AFETR","MEAN_MOTION":"15.06397044","FILE":"3157563","MEAN_MOTION_DDOT":"0.0000000000000","ELEMENT_SET_NO":"999","PERIOD":"95.592","TLE_LINE2":"2 45379  53.0538 193.2288 0001705  63.5968 296.5195 15.06397044 87109","TIME_SYSTEM":"UTC","APOAPSIS":"548.403","MEAN_ELEMENT_THEORY":"SGP4","CENTER_NAME":"EARTH","INCLINATION":"53.0538","ARG_OF_PERICENTER":"63.5968","PERIAPSIS":"546.042","DECAY_DATE":null,"NORAD_CAT_ID":"45379","COUNTRY_CODE":"US","TLE_LINE1":"1 45379U 20019V   21284.90597482  .00001058  00000-0  89931-4 0  9999","MEAN_MOTION_DOT":"0.00001058","GP_ID":"186927576","MEAN_ANOMALY":"296.5195","RCS_SIZE":"LARGE"},{"MEAN_ANOMALY":"290.8728","RCS_SIZE":"LARGE","MEAN_ELEMENT_THEORY":"SGP4","ARG_OF_PERICENTER":"69.2437","CENTER_NAME":"EARTH","INCLINATION":"53.0549","NORAD_CAT_ID":"45380","COUNTRY_CODE":"US","PERIAPSIS":"546.076","DECAY_DATE":null,"GP_ID":"186927828","TLE_LINE1":"1 45380U 20019W   21284.90413262  .00001465  00000-0  11725-3 0  9991","MEAN_MOTION_DOT":"0.00001465","CLASSIFICATION_TYPE":"U","OBJECT_ID":"2020-019W","BSTAR":"0.00011725000000","EPHEMERIS_TYPE":"0","LAUNCH_DATE":"2020-03-18","SITE":"AFETR","MEAN_MOTION":"15.06400656","RA_OF_ASC_NODE":"173.2372","ECCENTRICITY":"0.00016400","EPOCH":"2021-10-11T21:41:57.058368","PERIOD":"95.592","ELEMENT_SET_NO":"999","TLE_LINE2":"2 45380  53.0549 173.2372 0001640  69.2437 290.8728 15.06400656 87379","MEAN_MOTION_DDOT":"0.0000000000000","FILE":"3157563","APOAPSIS":"548.347","TIME_SYSTEM":"UTC","OBJECT_TYPE":"PAYLOAD","REF_FRAME":"TEME","OBJECT_NAME":"STARLINK-1207","REV_AT_EPOCH":"8737","SEMIMAJOR_AXIS":"6925.347"},{"OBJECT_NAME":"STARLINK-1258","REV_AT_EPOCH":"8737","SEMIMAJOR_AXIS":"6925.350","OBJECT_TYPE":"PAYLOAD","REF_FRAME":"TEME","ELEMENT_SET_NO":"999","PERIOD":"95.592","TLE_LINE2":"2 45381  53.0529 173.1846 0001609  74.7231 285.3936 15.06399642 87373","MEAN_MOTION_DDOT":"0.0000000000000","FILE":"3157563","APOAPSIS":"548.329","TIME_SYSTEM":"UTC","CLASSIFICATION_TYPE":"U","OBJECT_ID":"2020-019X","BSTAR":"0.00010751000000","EPHEMERIS_TYPE":"0","LAUNCH_DATE":"2020-03-18","MEAN_MOTION":"15.06399642","SITE":"AFETR","RA_OF_ASC_NODE":"173.1846","ECCENTRICITY":"0.00016090","EPOCH":"2021-10-11T21:57:52.195680","NORAD_CAT_ID":"45381","COUNTRY_CODE":"US","PERIAPSIS":"546.100","DECAY_DATE":null,"GP_ID":"186928578","TLE_LINE1":"1 45381U 20019X   21284.91518745  .00001320  00000-0  10751-3 0  9993","MEAN_MOTION_DOT":"0.00001320","MEAN_ELEMENT_THEORY":"SGP4","ARG_OF_PERICENTER":"74.7231","CENTER_NAME":"EARTH","INCLINATION":"53.0529","RCS_SIZE":"LARGE","MEAN_ANOMALY":"285.3936"},{"TLE_LINE1":"1 45382U 20019Y   21284.95944076  .00004580  00000-0  32618-3 0  9995","MEAN_MOTION_DOT":"0.00004580","GP_ID":"186927326","PERIAPSIS":"545.949","DECAY_DATE":null,"NORAD_CAT_ID":"45382","COUNTRY_CODE":"US","CENTER_NAME":"EARTH","INCLINATION":"53.0536","ARG_OF_PERICENTER":"61.9082","MEAN_ELEMENT_THEORY":"SGP4","RCS_SIZE":"LARGE","MEAN_ANOMALY":"298.2092","SEMIMAJOR_AXIS":"6925.355","REV_AT_EPOCH":"8720","OBJECT_NAME":"STARLINK-1264","REF_FRAME":"TEME","OBJECT_TYPE":"PAYLOAD","TIME_SYSTEM":"UTC","APOAPSIS":"548.492","MEAN_MOTION_DDOT":"0.0000000000000","FILE":"3157563","ELEMENT_SET_NO":"999","PERIOD":"95.592","TLE_LINE2":"2 45382  53.0536 172.9886 0001836  61.9082 298.2092 15.06397855 87209","RA_OF_ASC_NODE":"172.9886","EPOCH":"2021-10-11T23:01:35.681664","ECCENTRICITY":"0.00018360","LAUNCH_DATE":"2020-03-18","SITE":"AFETR","MEAN_MOTION":"15.06397855","BSTAR":"0.00032618000000","EPHEMERIS_TYPE":"0","CLASSIFICATION_TYPE":"U","OBJECT_ID":"2020-019Y"},{"MEAN_MOTION_DOT":"0.00001686","TLE_LINE1":"1 45383U 20019Z   21284.90781379  .00001686  00000-0  13206-3 0  9992","GP_ID":"186927077","DECAY_DATE":null,"PERIAPSIS":"545.950","COUNTRY_CODE":"US","NORAD_CAT_ID":"45383","CENTER_NAME":"EARTH","INCLINATION":"53.0529","ARG_OF_PERICENTER":"69.3373","MEAN_ELEMENT_THEORY":"SGP4","RCS_SIZE":"LARGE","MEAN_ANOMALY":"290.7809","REV_AT_EPOCH":"8737","SEMIMAJOR_AXIS":"6925.333","OBJECT_NAME":"STARLINK-1266","REF_FRAME":"TEME","OBJECT_TYPE":"PAYLOAD","TIME_SYSTEM":"UTC","APOAPSIS":"548.446","FILE":"3157563","MEAN_MOTION_DDOT":"0.0000000000000","TLE_LINE2":"2 45383  53.0529 173.2157 0001802  69.3373 290.7809 15.06405034 87375","PERIOD":"95.592","ELEMENT_SET_NO":"999","ECCENTRICITY":"0.00018020","EPOCH":"2021-10-11T21:47:15.111456","RA_OF_ASC_NODE":"173.2157","MEAN_MOTION":"15.06405034","SITE":"AFETR","LAUNCH_DATE":"2020-03-18","EPHEMERIS_TYPE":"0","BSTAR":"0.00013206000000","OBJECT_ID":"2020-019Z","CLASSIFICATION_TYPE":"U"}];
